HIMAWARI-8              
1 40267U 14060A   24097.50735745 -.00000285  00000+0  00000+0 0  9992
2 40267   0.0227 182.2445 0000931 226.3048 110.0179  1.00272225 34823
